STARLINK-31424          
1 59247U 24049S   26068.28066430  .00001284  00000+0  56209-4 0  9997
2 59247  43.0004 142.3688 0001602 293.1719  66.8964 15.27569142112378
TEVEL2-2                
1 63219U 25052K   26068.64848259  .00020339  00000+0  69428-3 0  9991
2 63219  97.3987 324.7700 0004693 105.7930 254.3828 15.30343745 54855
